[{"OBJECT_NAME":"CORVUS BC2","OBJECT_ID":"2017-042X","EPOCH":"2026-03-09T22:14:39.055488","MEAN_MOTION":15.05610206,"ECCENTRICITY":0.00145863,"INCLINATION":97.3955,"RA_OF_ASC_NODE":234.2405,"ARG_OF_PERICENTER":92.385,"MEAN_ANOMALY":267.9047,"EPHEMERIS_TYPE":0,"CLASSIFICATION_TYPE":"U","NORAD_CAT_ID":42846,"ELEMENT_SET_NO":999,"REV_AT_EPOCH":47212,"BSTAR":0.00034626467,"MEAN_MOTION_DOT":4.947e-5,"MEAN_MOTION_DDOT":0},{"OBJECT_NAME":"STARLINK-3931","OBJECT_ID":"2022-051R","EPOCH":"2026-03-09T11:02:11.529888","MEAN_MOTION":15.0876517,"ECCENTRICITY":0.00019383,"INCLINATION":53.217,"RA_OF_ASC_NODE":130.1527,"ARG_OF_PERICENTER":100.2735,"MEAN_ANOMALY":259.8475,"EPHEMERIS_TYPE":0,"CLASSIFICATION_TYPE":"U","NORAD_CAT_ID":52548,"ELEMENT_SET_NO":999,"REV_AT_EPOCH":21141,"BSTAR":0.00086497557,"MEAN_MOTION_DOT":0.00013477,"MEAN_MOTION_DDOT":0}]
